[
    {
        "name": "ELEKTRO-L 2             ",
        "line1": "1 41105U 15074A   21138.84056535 -.00000108  00000-0  00000-0 0  9999",
        "line2": "2 41105   2.0105  92.8064 0001353  30.7064  41.3423  1.00270806 19913"
    },
    {
        "name": "NOAA 2 (ITOS-D) [-]     ",
        "line1": "1 06235U 72082A   21137.88664097 -.00000010  00000-0  22847-3 0  9995",
        "line2": "2 06235 101.9026 113.5364 0004462 108.8426 304.0018 12.53134754222428"
    },
    {
        "name": "NOAA 3 [-]              ",
        "line1": "1 06920U 73086A   21137.92886561 -.00000046  00000-0 -62391-5 0  9998",
        "line2": "2 06920 102.1570 114.1452 0006140 303.2468 118.3988 12.40343305151752"
    }
]